     2.10           N: GPS NAV DATA                         RINEX VERSION / TYPE
teqc  2008Oct2      gpsops              20090128 00:10:00UTCPGM / RUN BY / DATE
Linux 2.4.20-8|Pentium IV|gcc -static|Linux|486/DX+         COMMENT
soc2rnx ver 1.20    gpsops              28-Jan-2009 00:09:49COMMENT
Forced Modulo Decimation to 30 seconds                      COMMENT
GLPS                                    MARKER NAME         COMMENT
42005M002                               MARKER NUMBER       COMMENT
-33801.4662 -6377516.5323 -82154.3508                       COMMENT
                                                            COMMENT
This data is provided as a public service by NASA/JPL.      COMMENT
No warranty is expressed or implied regarding suitability   COMMENT
for use.  For further information, contact:                 COMMENT
Dave Stowers, NASA/JPL m/s 238-600                          COMMENT
4800 Oak Grove Drive, Pasadena CA 91109 USA                 COMMENT
                                                            END OF HEADER
11 09  1 27 10  0  0.0 9.313225746155D-06-1.136868377216D-12 0.000000000000D+00
    1.020000000000D+02 3.075000000000D+01 6.623133022932D-09-6.980450266401D-01
    1.665204763412D-06 9.168521384709D-03 4.187226295471D-06 5.153659435272D+03
    2.088000000000D+05 1.080334186554D-07 1.528915422333D+00 1.527369022369D-07
    8.894696684048D-01 2.584062500000D+02 6.817025303210D-01-9.208955018512D-09
    2.210806374674D-10 1.000000000000D+00 1.516000000000D+03 0.000000000000D+00
    2.000000000000D+00 0.000000000000D+00-1.210719347000D-08 1.020000000000D+02
    2.016000000000D+05
13 09  1 27 10  0  0.0 2.864752896130D-04 1.364242052659D-12 0.000000000000D+00
    4.500000000000D+01 1.097812500000D+02 3.541576092288D-09 1.945188877359D+00
    5.694106221199D-06 3.722388530150D-03 9.251758456230D-06 5.153762935638D+03
    2.088000000000D+05 3.539025783539D-08-2.400235432697D+00-7.450580596924D-08
    9.953975623268D-01 2.181875000000D+02 1.507016599302D+00-7.548528712234D-09
    3.053698627377D-10 1.000000000000D+00 1.516000000000D+03 0.000000000000D+00
    2.000000000000D+00 0.000000000000D+00-1.117587089539D-08 4.500000000000D+01
    2.016000000000D+05
19 09  1 27 10  0  0.0 3.330549225211D-05-4.547473508865D-13 0.000000000000D+00
    9.600000000000D+01 5.062500000000D+00 4.521616914922D-09 1.575704544225D+00
    4.824250936508D-07 5.090210353956D-03 1.006573438644D-05 5.153781415939D+03
    2.088000000000D+05 8.381903171539D-08 7.593947916126D-01 3.725290298462D-08
    9.574975841891D-01 1.801250000000D+02-3.927629014999D-01-7.884256982379D-09
    4.075169747177D-10 1.000000000000D+00 1.516000000000D+03 0.000000000000D+00
    2.000000000000D+00 0.000000000000D+00-1.443549990654D-08 9.600000000000D+01
    2.016000000000D+05
20 09  1 27 10  0  0.0 9.250780567527D-05-1.136868377216D-12 0.000000000000D+00
    2.300000000000D+01-3.096875000000D+01 4.788413742367D-09-2.607197282655D+00
   -1.568347215652D-06 3.895978326909D-03 9.506940841675D-06 5.153688261032D+03
    2.088000000000D+05-5.587935447693D-09 2.760432484533D+00-5.774199962616D-08
    9.438716272647D-01 1.869062500000D+02 1.308801090350D+00-8.015691028563D-09
   -5.293077620786D-10 1.000000000000D+00 1.516000000000D+03 0.000000000000D+00
    2.000000000000D+00 0.000000000000D+00-6.519258022308D-09 2.300000000000D+01
    2.016000000000D+05
23 09  1 27 10  0  0.0 3.859102725983D-04 7.958078640513D-13 0.000000000000D+00
    3.900000000000D+01 1.029062500000D+02 4.124814672231D-09 1.027703125217D+00
    5.422160029411D-06 5.775064229965D-03 9.318813681602D-06 5.153651781082D+03
    2.088000000000D+05 9.685754776001D-08-2.449383989829D+00 7.078051567078D-08
    9.710573411446D-01 2.038750000000D+02 2.881281908797D+00-7.846398262554D-09
    2.228664261384D-10 1.000000000000D+00 1.516000000000D+03 0.000000000000D+00
    2.000000000000D+00 0.000000000000D+00-2.002343535423D-08 3.900000000000D+01
    2.016000000000D+05
25 09  1 27 10  0  0.0 2.022809349000D-04 2.569322532509D-11 0.000000000000D+00
    8.000000000000D+00 3.965625000000D+01 4.599120143243D-09-2.336626726179D+00
    2.264976501465D-06 1.179657969624D-02 9.462237358093D-07 5.153674325943D+03
    2.088000000000D+05 6.891787052155D-08-1.501443766485D+00 2.048909664154D-07
    9.678095474381D-01 3.630000000000D+02-1.233655242784D+00-8.213556413307D-09
    1.842933908452D-10 1.000000000000D+00 1.516000000000D+03 0.000000000000D+00
    2.000000000000D+00 0.000000000000D+00-7.450580596924D-09 8.000000000000D+00
    2.016000000000D+05
28 09  1 27 10  0  0.0-2.370262518525D-05 0.000000000000D+00 0.000000000000D+00
    2.400000000000D+01-1.237812500000D+02 4.169102231271D-09 2.735481865171D+00
   -6.461516022682D-06 1.460244844202D-02 8.190050721169D-06 5.153649200439D+03
    2.088000000000D+05 3.725290298462D-08-3.300340787641D-01-1.899898052216D-07
    9.660040373513D-01 2.223437500000D+02-2.062135855001D+00-7.701035064736D-09
   -2.946551307118D-10 1.000000000000D+00 1.516000000000D+03 0.000000000000D+00
    2.000000000000D+00 0.000000000000D+00-1.024454832077D-08 2.400000000000D+01
    2.016000000000D+05
32 09  1 27 10  0  0.0 3.004353493452D-04-2.955857780762D-12 0.000000000000D+00
    7.800000000000D+01-1.840625000000D+01 4.353395622116D-09 2.236914929171D-01
   -9.778887033463D-07 1.360629987903D-02 1.057237386703D-05 5.153648715973D+03
    2.088000000000D+05-1.154839992523D-07 2.867377827739D+00-2.365559339523D-07
    9.659394187968D-01 1.831562500000D+02-1.206056431560D+00-8.067478900021D-09
   -5.582375385485D-10 1.000000000000D+00 1.516000000000D+03 0.000000000000D+00
    2.000000000000D+00 0.000000000000D+00-3.259629011154D-09 7.800000000000D+01
    2.016000000000D+05
17 09  1 27 10  0  0.0 4.532048478723D-05 1.023181539495D-12 0.000000000000D+00
    6.600000000000D+01 7.343750000000D+00 4.346966782901D-09 2.316856105168D+00
    3.743916749954D-07 4.166660481133D-03 1.074559986591D-05 5.153641012192D+03
    2.088000000000D+05-1.173466444016D-07 7.030040219564D-01-3.352761268616D-08
    9.598135722250D-01 1.729375000000D+02-2.760740092318D+00-7.848898366693D-09
    4.468043254793D-10 1.000000000000D+00 1.516000000000D+03 0.000000000000D+00
    2.000000000000D+00 0.000000000000D+00-1.024454832077D-08 6.600000000000D+01
    2.031600000000D+05
 8 09  1 27 10  0  0.0-1.880661584437D-04-1.591615728103D-12 0.000000000000D+00
    7.400000000000D+01-3.531250000000D+00 4.283749863948D-09-1.227145235388D+00
   -3.557652235031D-07 1.049416395836D-02 1.387670636177D-06 5.153685253143D+03
    2.088000000000D+05 4.097819328308D-08-1.348756502036D+00-1.043081283569D-07
    9.866572704871D-01 3.651875000000D+02 2.974292603271D+00-8.280702067336D-09
    1.646497154644D-10 1.000000000000D+00 1.516000000000D+03 0.000000000000D+00
    2.000000000000D+00 0.000000000000D+00-4.190951585770D-09 7.400000000000D+01
    2.075700000000D+05
 7 09  1 27 12  0  0.0 2.310983836651D-05-2.273736754432D-13 0.000000000000D+00
    6.200000000000D+01 2.143750000000D+01 4.804485840406D-09 4.914969367288D-01
    1.074746251106D-06 2.307483227924D-03 1.126900315285D-06 5.153676519394D+03
    2.160000000000D+05-1.117587089539D-08-1.406716361051D+00 2.980232238770D-08
    9.654743688428D-01 3.594687500000D+02 2.922283602419D+00-8.507497228551D-09
    1.021471119801D-10 1.000000000000D+00 1.516000000000D+03 0.000000000000D+00
    2.000000000000D+00 0.000000000000D+00-1.071020960808D-08 6.200000000000D+01
    2.088000000000D+05
 8 09  1 27 12  0  0.0-1.880773343146D-04-1.591615728103D-12 0.000000000000D+00
    8.000000000000D+01 1.006250000000D+01 4.351966991179D-09-1.770791822301D-01
    4.805624485016D-07 1.049262436572D-02 1.288950443268D-06 5.153681615829D+03
    2.160000000000D+05 1.434236764908D-07-1.348815890659D+00-1.117587089539D-08
    9.866579053935D-01 3.655312500000D+02 2.974399516250D+00-8.371062974088D-09
    8.678932940965D-11 1.000000000000D+00 1.516000000000D+03 0.000000000000D+00
    2.000000000000D+00 0.000000000000D+00-4.190951585770D-09 8.000000000000D+01
    2.088000000000D+05
11 09  1 27 12  0  0.0 9.304843842983D-06-1.136868377216D-12 0.000000000000D+00
    1.290000000000D+02 3.050000000000D+01 6.683135522277D-09 3.521332762215D-01
    1.750886440277D-06 9.168248972856D-03 4.317611455917D-06 5.153658834457D+03
    2.160000000000D+05-1.303851604462D-08 1.528848865412D+00 1.434236764908D-07
    8.894710932870D-01 2.547812500000D+02 6.817297288939D-01-9.244670791931D-09
    2.042942239602D-10 1.000000000000D+00 1.516000000000D+03 0.000000000000D+00
    2.800000000000D+00 0.000000000000D+00-1.210719347000D-08 1.290000000000D+02
    2.088000000000D+05
13 09  1 27 12  0  0.0 2.864855341613D-04 1.364242052659D-12 0.000000000000D+00
    4.600000000000D+01 1.141250000000D+02 3.511217684882D-09 2.995280612043D+00
    5.936250090599D-06 3.721582703292D-03 9.587034583092D-06 5.153764238358D+03
    2.160000000000D+05 4.842877388000D-08-2.400289535797D+00-2.235174179077D-08
    9.953997932768D-01 2.114062500000D+02 1.507044143123D+00-7.521741882170D-09
    2.975123925853D-10 1.000000000000D+00 1.516000000000D+03 0.000000000000D+00
    2.000000000000D+00 0.000000000000D+00-1.117587089539D-08 4.600000000000D+01
    2.088000000000D+05
17 09  1 27 12  0  0.0 4.532793536782D-05 1.023181539495D-12 0.000000000000D+00
    7.000000000000D+01 2.187500000000D+00 4.361610250003D-09-2.916133537238D+00
    1.434236764908D-07 4.167556180619D-03 1.089088618755D-05 5.153639415741D+03
    2.160000000000D+05-2.980232238770D-08 7.029478210326D-01-7.078051567078D-08
    9.598171636889D-01 1.675937500000D+02-2.760735959574D+00-7.774252400246D-09
    4.553761111000D-10 1.000000000000D+00 1.516000000000D+03 0.000000000000D+00
    2.000000000000D+00 0.000000000000D+00-1.024454832077D-08 7.000000000000D+01
    2.088000000000D+05
